STARLINK-32195          
1 60440U 24144R   26186.79401795 -.00005140  00000+0 -14132-3 0  9999
2 60440  53.1600  26.2685 0000979  71.2699 288.8410 15.34348515107423
STARLINK-32177          
1 60441U 24144S   26186.98100252 -.00004618  00000+0 -12574-3 0  9992
2 60441  53.1596  25.3008 0001150  89.8315 270.2820 15.34368221107458
STARLINK-32252          
1 60442U 24144T   26186.79610726 -.00006543  00000+0 -18286-3 0  9999
2 60442  53.1615  26.2818 0000920 107.8729 252.2374 15.34372081107468
STARLINK-32237          
1 60443U 24144U   26186.82345684 -.00007635  00000+0 -21525-3 0  9995
2 60443  53.1612  26.4516 0001055  89.9979 270.1144 15.34374033107429
STARLINK-32249          
1 60444U 24144V   26186.87387312 -.00003462  00000+0 -91513-4 0  9994
2 60444  53.1614  26.0541 0000190 112.2759 247.8264 15.34360098107476
STARLINK-32228          
1 60445U 24144W   26186.97258280 -.00005010  00000+0 -13737-3 0  9999
2 60445  53.1603  25.2472 0000801  89.0213 271.0882 15.34371178107492
STARLINK-32247          
1 60446U 24144X   26186.82801314  .00050092  00000+0  14967-2 0  9999
2 60446  53.1612  17.8133 0000834  89.9103 270.1995 15.34127257107589
STARLINK-32101          
1 60447U 24144Y   26186.84652286 -.00004950  00000+0 -13563-3 0  9990
2 60447  53.1611  25.8851 0000753  80.7492 279.3596 15.34364396107434
STARLINK-31844          
1 60583U 24150A   26187.28211073  .00000379  00000+0  23972-4 0  9997
2 60583  53.1605 115.1049 0001414  90.2782 269.8381 15.31705408106214
STARLINK-32204          
1 60584U 24150B   26187.20336675 -.00002112  00000+0 -51423-4 0  9997
2 60584  53.1578 114.6093 0001400  92.1800 267.9363 15.34369426106212
STARLINK-32130          
1 60585U 24150C   26187.07656147 -.00000658  00000+0 -10089-4 0  9998
2 60585  53.1588 117.3669 0001364  75.5299 284.5853 15.30196149106089
STARLINK-32173          
1 60586U 24150D   26187.16970777  .00017895  00000+0  53994-3 0  9997
2 60586  53.1570 114.3997 0001496  99.0897 261.0275 15.34373766106212
STARLINK-31911          
1 60587U 24150E   26187.06888887 -.00002442  00000+0 -61202-4 0  9993
2 60587  53.1590 115.1946 0001345  93.0576 267.0580 15.34380322106119
STARLINK-31994          
1 60588U 24150F   26187.22852811 -.00000797  00000+0 -12466-4 0  9999
2 60588  53.1565 114.0552 0001197  88.6826 271.4313 15.34372813106148
STARLINK-32169          
1 60589U 24150G   26187.21882294 -.00001143  00000+0 -26469-4 0  9991
2 60589  53.1603 116.8332 0001416  95.6619 264.4543 15.30183962106182
STARLINK-32209          
1 60590U 24150H   26187.17600788  .00000654  00000+0  30485-4 0  9991
2 60590  53.1599 114.4367 0001169  96.9934 263.1202 15.34386882106211
STARLINK-32170          
1 60591U 24150J   26187.21355104 -.00000774  00000+0 -14011-4 0  9998
2 60591  53.1595 116.7935 0001434  94.7413 265.3752 15.30176834106109
STARLINK-31497          
1 60592U 24150K   26187.19072597 -.00002243  00000+0 -55269-4 0  9991
2 60592  53.1592 114.5315 0001309  77.3694 282.7455 15.34397137106214
STARLINK-32161          
1 60593U 24150L   26187.05835983 -.00004174  00000+0 -11245-3 0  9993
2 60593  53.1597 115.1252 0001491  86.7874 273.3300 15.34400997106116
STARLINK-32210          
1 60594U 24150M   26187.21388620 -.00001310  00000+0 -27651-4 0  9991
2 60594  53.1579 114.6712 0001428  88.0116 272.1050 15.34377537106219
STARLINK-32202          
1 60595U 24150N   26187.23630455  .00004907  00000+0  16989-3 0  9994
2 60595  53.1574 116.2312 0000670  78.5777 281.5300 15.31680192106194
STARLINK-31930          
1 60596U 24150P   26187.07730482  .00011335  00000+0  34651-3 0  9997
2 60596  53.1586 115.2470 0001679  84.7256 275.3938 15.34363187106118
STARLINK-32162          
1 60597U 24150Q   26187.21670157 -.00001623  00000+0 -42678-4 0  9996
2 60597  53.1576 116.8198 0002540  86.0077 274.1214 15.30183057106189
STARLINK-32208          
1 60598U 24150R   26187.21985910 -.00000380  00000+0 -68836-6 0  9998
2 60598  53.1596 116.8376 0001412  90.3315 269.7848 15.30197278106183
STARLINK-32165          
1 60599U 24150S   26187.21035899  .00000155  00000+0  17373-4 0  9997
2 60599  53.1591 116.7774 0001459 101.9140 258.2025 15.30192637106180
STARLINK-31923          
1 60600U 24150T   26187.06919992 -.00002618  00000+0 -76344-4 0  9999
2 60600  53.1597 117.3175 0001279  97.3114 262.8032 15.30178493106161
STARLINK-31988          
1 60601U 24150U   26187.27059845  .00003837  00000+0  12465-3 0  9990
2 60601  53.1588 114.3156 0001456  86.5857 273.5312 15.34394358106141
STARLINK-31983          
1 60602U 24150V   26187.18232540 -.00001706  00000+0 -39375-4 0  9991
2 60602  53.1597 114.4741 0001380 108.6120 251.5033 15.34383706106138
STARLINK-31874          
1 60603U 24150W   26187.06678376  .00009291  00000+0  28612-3 0  9996
2 60603  53.1591 115.1769 0001473 103.2084 256.9084 15.34359792106193
STARLINK-32039          
1 60604U 24150X   26187.24255360 -.00000010  00000+0  11777-4 0  9997
2 60604  53.1572 119.1074 0001210 110.2545 249.8586 15.30193288106151
