OBJECT_NAME,OBJECT_ID,EPOCH,MEAN_MOTION,ECCENTRICITY,INCLINATION,RA_OF_ASC_NODE,ARG_OF_PERICENTER,MEAN_ANOMALY,EPHEMERIS_TYPE,CLASSIFICATION_TYPE,NORAD_CAT_ID,ELEMENT_SET_NO,REV_AT_EPOCH,BSTAR,MEAN_MOTION_DOT,MEAN_MOTION_DDOT
STARLINK-32195,2024-144R,2026-07-05T19:03:23.150880,15.34348515,.00009791,53.1600,26.2685,71.2699,288.8410,0,U,60440,999,10742,-.14132053E-3,-.514E-4,0
STARLINK-32177,2024-144S,2026-07-05T23:32:38.617728,15.34368221,.00011508,53.1596,25.3008,89.8315,270.2820,0,U,60441,999,10745,-.12574051E-3,-.4618E-4,0
STARLINK-32252,2024-144T,2026-07-05T19:06:23.667264,15.34372081,.00009206,53.1615,26.2818,107.8729,252.2374,0,U,60442,999,10746,-.1828578E-3,-.6543E-4,0
STARLINK-32237,2024-144U,2026-07-05T19:45:46.670976,15.34374033,.00010552,53.1612,26.4516,89.9979,270.1144,0,U,60443,999,10742,-.21524669E-3,-.7635E-4,0
STARLINK-32249,2024-144V,2026-07-05T20:58:22.637568,15.34360098,.00001908,53.1614,26.0541,112.2759,247.8264,0,U,60444,999,10747,-.91513368E-4,-.3462E-4,0
STARLINK-32228,2024-144W,2026-07-05T23:20:31.153920,15.34371178,.00008015,53.1603,25.2472,89.0213,271.0882,0,U,60445,999,10749,-.13737004E-3,-.501E-4,0
STARLINK-32247,2024-144X,2026-07-05T19:52:20.335296,15.34127257,.00008341,53.1612,17.8133,89.9103,270.1995,0,U,60446,999,10758,.14966825E-2,.50092E-3,0
STARLINK-32101,2024-144Y,2026-07-05T20:18:59.575104,15.34364396,.00007539,53.1611,25.8851,80.7492,279.3596,0,U,60447,999,10743,-.13562814E-3,-.495E-4,0
STARLINK-31844,2024-150A,2026-07-06T06:46:14.367072,15.31705408,.00014148,53.1605,115.1049,90.2782,269.8381,0,U,60583,999,10621,.23972208E-4,.379E-5,0
STARLINK-32204,2024-150B,2026-07-06T04:52:50.887200,15.34369426,.00014006,53.1578,114.6093,92.1800,267.9363,0,U,60584,999,10621,-.51423017E-4,-.2112E-4,0
STARLINK-32130,2024-150C,2026-07-06T01:50:14.911008,15.30196149,.00013644,53.1588,117.3669,75.5299,284.5853,0,U,60585,999,10608,-.10088994E-4,-.658E-5,0
STARLINK-32173,2024-150D,2026-07-06T04:04:22.751328,15.34373766,.00014969,53.1570,114.3997,99.0897,261.0275,0,U,60586,999,10621,.5399364E-3,.17895E-3,0
STARLINK-31911,2024-150E,2026-07-06T01:39:11.998368,15.34380322,.00013458,53.1590,115.1946,93.0576,267.0580,0,U,60587,999,10611,-.612019E-4,-.2442E-4,0
STARLINK-31994,2024-150F,2026-07-06T05:29:04.828704,15.34372813,.00011973,53.1565,114.0552,88.6826,271.4313,0,U,60588,999,10614,-.12465887E-4,-.797E-5,0
STARLINK-32169,2024-150G,2026-07-06T05:15:06.302016,15.30183962,.0001416,53.1603,116.8332,95.6619,264.4543,0,U,60589,999,10618,-.26469124E-4,-.1143E-4,0
STARLINK-32209,2024-150H,2026-07-06T04:13:27.080832,15.34386882,.00011692,53.1599,114.4367,96.9934,263.1202,0,U,60590,999,10621,.30485448E-4,.654E-5,0
STARLINK-32170,2024-150J,2026-07-06T05:07:30.809856,15.30176834,.00014347,53.1595,116.7935,94.7413,265.3752,0,U,60591,999,10610,-.14011305E-4,-.774E-5,0
STARLINK-31497,2024-150K,2026-07-06T04:34:38.723808,15.34397137,.00013093,53.1592,114.5315,77.3694,282.7455,0,U,60592,999,10621,-.55269084E-4,-.2243E-4,0
STARLINK-32161,2024-150L,2026-07-06T01:24:02.289312,15.34400997,.00014919,53.1597,115.1252,86.7874,273.3300,0,U,60593,999,10611,-.11245317E-3,-.4174E-4,0
STARLINK-32210,2024-150M,2026-07-06T05:07:59.767680,15.34377537,.00014286,53.1579,114.6712,88.0116,272.1050,0,U,60594,999,10621,-.27650833E-4,-.131E-4,0
STARLINK-32202,2024-150N,2026-07-06T05:40:16.713120,15.31680192,.00006709,53.1574,116.2312,78.5777,281.5300,0,U,60595,999,10619,.1698873E-3,.4907E-4,0
STARLINK-31930,2024-150P,2026-07-06T01:51:19.136448,15.34363187,.00016792,53.1586,115.2470,84.7256,275.3938,0,U,60596,999,10611,.34650925E-3,.11335E-3,0
STARLINK-32162,2024-150Q,2026-07-06T05:12:03.015648,15.30183057,.000254,53.1576,116.8198,86.0077,274.1214,0,U,60597,999,10618,-.4267781E-4,-.1623E-4,0
STARLINK-32208,2024-150R,2026-07-06T05:16:35.826240,15.30197278,.00014122,53.1596,116.8376,90.3315,269.7848,0,U,60598,999,10618,-.688357E-6,-.38E-5,0
STARLINK-32165,2024-150S,2026-07-06T05:02:55.016736,15.30192637,.00014596,53.1591,116.7774,101.9140,258.2025,0,U,60599,999,10618,.17372805E-4,.155E-5,0
STARLINK-31923,2024-150T,2026-07-06T01:39:38.873088,15.30178493,.00012798,53.1597,117.3175,97.3114,262.8032,0,U,60600,999,10616,-.76344367E-4,-.2618E-4,0
STARLINK-31988,2024-150U,2026-07-06T06:29:39.706080,15.34394358,.00014566,53.1588,114.3156,86.5857,273.5312,0,U,60601,999,10614,.12465245E-3,.3837E-4,0
STARLINK-31983,2024-150V,2026-07-06T04:22:32.914560,15.34383706,.00013806,53.1597,114.4741,108.6120,251.5033,0,U,60602,999,10613,-.39374519E-4,-.1706E-4,0
STARLINK-31874,2024-150W,2026-07-06T01:36:10.116864,15.34359792,.00014733,53.1591,115.1769,103.2084,256.9084,0,U,60603,999,10619,.28612497E-3,.9291E-4,0
STARLINK-32039,2024-150X,2026-07-06T05:49:16.631040,15.30193288,.00012102,53.1572,119.1074,110.2545,249.8586,0,U,60604,999,10615,.11777228E-4,-.1E-6,0
